[{"OBJECT_NAME":"STARLINK-3628","OBJECT_ID":"2022-017R","EPOCH":"2026-03-09T21:59:21.071904","MEAN_MOTION":15.08833646,"ECCENTRICITY":0.00015326,"INCLINATION":53.2201,"RA_OF_ASC_NODE":338.1594,"ARG_OF_PERICENTER":112.9862,"MEAN_ANOMALY":247.1292,"EPHEMERIS_TYPE":0,"CLASSIFICATION_TYPE":"U","NORAD_CAT_ID":51783,"ELEMENT_SET_NO":999,"REV_AT_EPOCH":22245,"BSTAR":1.1184792e-5,"MEAN_MOTION_DOT":-1.1e-6,"MEAN_MOTION_DDOT":0},{"OBJECT_NAME":"JILIN-01 KUANFU 02B 4","OBJECT_ID":"2024-169D","EPOCH":"2026-03-09T23:04:43.463424","MEAN_MOTION":15.0922271,"ECCENTRICITY":0.00080501,"INCLINATION":97.5522,"RA_OF_ASC_NODE":159.355,"ARG_OF_PERICENTER":260.1533,"MEAN_ANOMALY":99.8787,"EPHEMERIS_TYPE":0,"CLASSIFICATION_TYPE":"U","NORAD_CAT_ID":61192,"ELEMENT_SET_NO":999,"REV_AT_EPOCH":8086,"BSTAR":0.00035789888,"MEAN_MOTION_DOT":5.634e-5,"MEAN_MOTION_DDOT":0}]
